start=new Date('2022-12-17T00:00:00.000Z').valueOf();
sats=[{"EPOCH":"2022-12-16T19:42:39.169152","RCS_SIZE":"LARGE","NORAD_CAT_ID":"47152","SITE":"AFETR","TIME_SYSTEM":"UTC","MEAN_ANOMALY":"282.4255","MEAN_MOTION":"15.06396930","COUNTRY_CODE":"US","INCLINATION":"53.0550","LAUNCH_DATE":"2020-11-25","MEAN_ELEMENT_THEORY":"SGP4","APOAPSIS":"548.213","ECCENTRICITY":"0.00014290","BSTAR":"0.00005124900000","TLE_LINE1":"1 47152U 20088AG  22350.82128668  .00000482  00000-0  51249-4 0  9999","PERIOD":"95.592","DECAY_DATE":null,"CENTER_NAME":"EARTH","REV_AT_EPOCH":"11415","TLE_LINE2":"2 47152  53.0550 193.7493 0001429  77.6894 282.4255 15.06396930114154","GP_ID":"220661695","OBJECT_ID":"2020-088AG","OBJECT_NAME":"STARLINK-1866","ARG_OF_PERICENTER":"77.6894","RA_OF_ASC_NODE":"193.7493","MEAN_MOTION_DDOT":"0.0000000000000","ELEMENT_SET_NO":"999","CLASSIFICATION_TYPE":"U","OBJECT_TYPE":"PAYLOAD","MEAN_MOTION_DOT":"0.00000482","SEMIMAJOR_AXIS":"6925.358","EPHEMERIS_TYPE":"0","PERIAPSIS":"546.233","FILE":"3705029","REF_FRAME":"TEME"},{"ECCENTRICITY":"0.00016600","BSTAR":"-0.00002435100000","TLE_LINE1":"1 47153U 20088AH  22350.81995380 -.00000644  00000-0 -24351-4 0  9998","PERIOD":"95.593","DECAY_DATE":null,"INCLINATION":"53.0546","LAUNCH_DATE":"2020-11-25","MEAN_ELEMENT_THEORY":"SGP4","APOAPSIS":"548.381","MEAN_MOTION":"15.06394235","COUNTRY_CODE":"US","EPOCH":"2022-12-16T19:40:44.008320","RCS_SIZE":"LARGE","SITE":"AFETR","NORAD_CAT_ID":"47153","MEAN_ANOMALY":"295.2425","TIME_SYSTEM":"UTC","PERIAPSIS":"546.082","FILE":"3705029","REF_FRAME":"TEME","MEAN_MOTION_DOT":"-0.00000644","OBJECT_TYPE":"PAYLOAD","SEMIMAJOR_AXIS":"6925.366","EPHEMERIS_TYPE":"0","RA_OF_ASC_NODE":"199.0166","MEAN_MOTION_DDOT":"0.0000000000000","ELEMENT_SET_NO":"999","CLASSIFICATION_TYPE":"U","CENTER_NAME":"EARTH","REV_AT_EPOCH":"11408","TLE_LINE2":"2 47153  53.0546 199.0166 0001660  64.8736 295.2425 15.06394235114085","GP_ID":"220661948","OBJECT_ID":"2020-088AH","ARG_OF_PERICENTER":"64.8736","OBJECT_NAME":"STARLINK-1867"},{"BSTAR":"0.00036249000000","ECCENTRICITY":"0.00017590","TLE_LINE1":"1 47154U 20088AJ  22350.86002813  .00005122  00000-0  36249-3 0  9996","PERIOD":"95.592","DECAY_DATE":null,"INCLINATION":"53.0525","LAUNCH_DATE":"2020-11-25","MEAN_ELEMENT_THEORY":"SGP4","APOAPSIS":"548.436","MEAN_MOTION":"15.06398448","COUNTRY_CODE":"US","EPOCH":"2022-12-16T20:38:26.430432","SITE":"AFETR","NORAD_CAT_ID":"47154","MEAN_ANOMALY":"303.3249","TIME_SYSTEM":"UTC","RCS_SIZE":"LARGE","PERIAPSIS":"546.000","FILE":"3705029","REF_FRAME":"TEME","SEMIMAJOR_AXIS":"6925.353","OBJECT_TYPE":"PAYLOAD","MEAN_MOTION_DOT":"0.00005122","EPHEMERIS_TYPE":"0","RA_OF_ASC_NODE":"183.5810","CLASSIFICATION_TYPE":"U","MEAN_MOTION_DDOT":"0.0000000000000","ELEMENT_SET_NO":"999","REV_AT_EPOCH":"11430","CENTER_NAME":"EARTH","GP_ID":"220662684","OBJECT_ID":"2020-088AJ","TLE_LINE2":"2 47154  53.0525 183.5810 0001759  56.7908 303.3249 15.06398448114307","OBJECT_NAME":"STARLINK-1868","ARG_OF_PERICENTER":"56.7908"},{"PERIAPSIS":"546.196","REF_FRAME":"TEME","FILE":"3705029","SEMIMAJOR_AXIS":"6925.360","OBJECT_TYPE":"PAYLOAD","MEAN_MOTION_DOT":"-0.00001400","EPHEMERIS_TYPE":"0","RA_OF_ASC_NODE":"204.0380","CLASSIFICATION_TYPE":"U","MEAN_MOTION_DDOT":"0.0000000000000","ELEMENT_SET_NO":"999","GP_ID":"220661450","OBJECT_ID":"2020-088AK","TLE_LINE2":"2 47155  53.0517 204.0380 0001487  71.1020 289.0130 15.06396112114006","REV_AT_EPOCH":"11400","CENTER_NAME":"EARTH","ARG_OF_PERICENTER":"71.1020","OBJECT_NAME":"STARLINK-1869","TLE_LINE1":"1 47155U 20088AK  22350.76232816 -.00001400  00000-0 -75113-4 0  9995","BSTAR":"-0.00007511300000","ECCENTRICITY":"0.00014870","DECAY_DATE":null,"PERIOD":"95.592","INCLINATION":"53.0517","APOAPSIS":"548.255","LAUNCH_DATE":"2020-11-25","MEAN_ELEMENT_THEORY":"SGP4","MEAN_MOTION":"15.06396112","COUNTRY_CODE":"US","MEAN_ANOMALY":"289.0130","SITE":"AFETR","NORAD_CAT_ID":"47155","TIME_SYSTEM":"UTC","RCS_SIZE":"LARGE","EPOCH":"2022-12-16T18:17:45.153024"},{"CENTER_NAME":"EARTH","REV_AT_EPOCH":"11415","TLE_LINE2":"2 47157  53.0552 193.8703 0001511  63.0929 297.0214 15.06392658114156","GP_ID":"220661195","OBJECT_ID":"2020-088AM","OBJECT_NAME":"STARLINK-1871","ARG_OF_PERICENTER":"63.0929","RA_OF_ASC_NODE":"193.8703","ELEMENT_SET_NO":"999","MEAN_MOTION_DDOT":"0.0000000000000","CLASSIFICATION_TYPE":"U","OBJECT_TYPE":"PAYLOAD","MEAN_MOTION_DOT":"0.00000407","SEMIMAJOR_AXIS":"6925.371","EPHEMERIS_TYPE":"0","PERIAPSIS":"546.190","FILE":"3705029","REF_FRAME":"TEME","EPOCH":"2022-12-16T19:12:09.930816","RCS_SIZE":"LARGE","SITE":"AFETR","NORAD_CAT_ID":"47157","MEAN_ANOMALY":"297.0214","TIME_SYSTEM":"UTC","MEAN_MOTION":"15.06392658","COUNTRY_CODE":"US","INCLINATION":"53.0552","MEAN_ELEMENT_THEORY":"SGP4","LAUNCH_DATE":"2020-11-25","APOAPSIS":"548.282","ECCENTRICITY":"0.00015110","BSTAR":"0.00004624100000","TLE_LINE1":"1 47157U 20088AM  22350.80011494  .00000407  00000-0  46241-4 0  9993","PERIOD":"95.593","DECAY_DATE":null},{"INCLINATION":"53.0540","LAUNCH_DATE":"2020-11-25","MEAN_ELEMENT_THEORY":"SGP4","APOAPSIS":"548.317","ECCENTRICITY":"0.00015490","BSTAR":"0.00002728000000","TLE_LINE1":"1 47158U 20088AN  22350.82315885  .00000125  00000-0  27280-4 0  9996","PERIOD":"95.593","DECAY_DATE":null,"EPOCH":"2022-12-16T19:45:20.924640","RCS_SIZE":"LARGE","SITE":"AFETR","NORAD_CAT_ID":"47158","MEAN_ANOMALY":"291.0342","TIME_SYSTEM":"UTC","MEAN_MOTION":"15.06389832","COUNTRY_CODE":"US","MEAN_MOTION_DOT":"0.00000125","OBJECT_TYPE":"PAYLOAD","SEMIMAJOR_AXIS":"6925.380","EPHEMERIS_TYPE":"0","PERIAPSIS":"546.172","FILE":"3705029","REF_FRAME":"TEME","CENTER_NAME":"EARTH","REV_AT_EPOCH":"11429","TLE_LINE2":"2 47158  53.0540 183.7672 0001549  69.0812 291.0342 15.06389832114296","OBJECT_ID":"2020-088AN","GP_ID":"220662449","ARG_OF_PERICENTER":"69.0812","OBJECT_NAME":"STARLINK-1873","RA_OF_ASC_NODE":"183.7672","MEAN_MOTION_DDOT":"0.0000000000000","ELEMENT_SET_NO":"999","CLASSIFICATION_TYPE":"U"},{"TLE_LINE1":"1 47161U 20088AR  22350.85632285  .00003916  00000-0  28167-3 0  9994","BSTAR":"0.00028167000000","ECCENTRICITY":"0.00017230","DECAY_DATE":null,"PERIOD":"95.592","INCLINATION":"53.0538","APOAPSIS":"548.403","MEAN_ELEMENT_THEORY":"SGP4","LAUNCH_DATE":"2020-11-25","MEAN_MOTION":"15.06401146","COUNTRY_CODE":"US","MEAN_ANOMALY":"296.6749","SITE":"AFETR","NORAD_CAT_ID":"47161","TIME_SYSTEM":"UTC","RCS_SIZE":"LARGE","EPOCH":"2022-12-16T20:33:06.294240","PERIAPSIS":"546.017","REF_FRAME":"TEME","FILE":"3705029","SEMIMAJOR_AXIS":"6925.345","OBJECT_TYPE":"PAYLOAD","MEAN_MOTION_DOT":"0.00003916","EPHEMERIS_TYPE":"0","RA_OF_ASC_NODE":"183.6155","CLASSIFICATION_TYPE":"U","ELEMENT_SET_NO":"999","MEAN_MOTION_DDOT":"0.0000000000000","OBJECT_ID":"2020-088AR","GP_ID":"220662184","TLE_LINE2":"2 47161  53.0538 183.6155 0001723  63.4417 296.6749 15.06401146114302","REV_AT_EPOCH":"11430","CENTER_NAME":"EARTH","ARG_OF_PERICENTER":"63.4417","OBJECT_NAME":"STARLINK-1876"},{"INCLINATION":"53.0538","LAUNCH_DATE":"2020-11-25","MEAN_ELEMENT_THEORY":"SGP4","APOAPSIS":"548.300","BSTAR":"-0.00007198700000","ECCENTRICITY":"0.00015480","TLE_LINE1":"1 47162U 20088AS  22350.85171551 -.00001353  00000-0 -71987-4 0  9993","PERIOD":"95.592","DECAY_DATE":null,"EPOCH":"2022-12-16T20:26:28.220064","NORAD_CAT_ID":"47162","SITE":"AFETR","TIME_SYSTEM":"UTC","MEAN_ANOMALY":"288.5041","RCS_SIZE":"LARGE","MEAN_MOTION":"15.06395188","COUNTRY_CODE":"US","SEMIMAJOR_AXIS":"6925.363","OBJECT_TYPE":"PAYLOAD","MEAN_MOTION_DOT":"-0.00001353","EPHEMERIS_TYPE":"0","PERIAPSIS":"546.156","FILE":"3705029","REF_FRAME":"TEME","REV_AT_EPOCH":"11416","CENTER_NAME":"EARTH","GP_ID":"220660950","OBJECT_ID":"2020-088AS","TLE_LINE2":"2 47162  53.0538 193.6405 0001548  71.6117 288.5041 15.06395188114162","ARG_OF_PERICENTER":"71.6117","OBJECT_NAME":"STARLINK-1877","RA_OF_ASC_NODE":"193.6405","CLASSIFICATION_TYPE":"U","ELEMENT_SET_NO":"999","MEAN_MOTION_DDOT":"0.0000000000000"},{"EPOCH":"2022-12-16T21:12:55.249056","RCS_SIZE":"LARGE","MEAN_ANOMALY":"276.1421","SITE":"AFETR","NORAD_CAT_ID":"47163","TIME_SYSTEM":"UTC","MEAN_MOTION":"15.06406460","COUNTRY_CODE":"US","INCLINATION":"53.0545","MEAN_ELEMENT_THEORY":"SGP4","LAUNCH_DATE":"2020-11-25","APOAPSIS":"548.172","ECCENTRICITY":"0.00014120","BSTAR":"0.00006310600000","TLE_LINE1":"1 47163U 20088AT  22350.88397279  .00000659  00000-0  63106-4 0  9994","PERIOD":"95.592","DECAY_DATE":null,"CENTER_NAME":"EARTH","REV_AT_EPOCH":"11402","TLE_LINE2":"2 47163  53.0545 203.4913 0001412  83.9729 276.1421 15.06406460114026","OBJECT_ID":"2020-088AT","GP_ID":"220661696","OBJECT_NAME":"STARLINK-1878","ARG_OF_PERICENTER":"83.9729","RA_OF_ASC_NODE":"203.4913","MEAN_MOTION_DDOT":"0.0000000000000","ELEMENT_SET_NO":"999","CLASSIFICATION_TYPE":"U","OBJECT_TYPE":"PAYLOAD","MEAN_MOTION_DOT":"0.00000659","SEMIMAJOR_AXIS":"6925.329","EPHEMERIS_TYPE":"0","PERIAPSIS":"546.216","FILE":"3705029","REF_FRAME":"TEME"},{"CLASSIFICATION_TYPE":"U","MEAN_MOTION_DDOT":"0.0000000000000","ELEMENT_SET_NO":"999","RA_OF_ASC_NODE":"173.5367","ARG_OF_PERICENTER":"73.8504","OBJECT_NAME":"STARLINK-1879","OBJECT_ID":"2020-088AU","GP_ID":"220661949","TLE_LINE2":"2 47164  53.0520 173.5367 0001424  73.8504 286.2641 15.06401160114446","REV_AT_EPOCH":"11444","CENTER_NAME":"EARTH","REF_FRAME":"TEME","FILE":"3705029","PERIAPSIS":"546.224","EPHEMERIS_TYPE":"0","SEMIMAJOR_AXIS":"6925.345","OBJECT_TYPE":"PAYLOAD","MEAN_MOTION_DOT":"0.00001772","COUNTRY_CODE":"US","MEAN_MOTION":"15.06401160","SITE":"AFETR","NORAD_CAT_ID":"47164","MEAN_ANOMALY":"286.2641","TIME_SYSTEM":"UTC","RCS_SIZE":"LARGE","EPOCH":"2022-12-16T20:55:39.377856","DECAY_DATE":null,"PERIOD":"95.592","TLE_LINE1":"1 47164U 20088AU  22350.87198354  .00001772  00000-0  13781-3 0  9997","BSTAR":"0.00013781000000","ECCENTRICITY":"0.00014240","APOAPSIS":"548.196","MEAN_ELEMENT_THEORY":"SGP4","LAUNCH_DATE":"2020-11-25","INCLINATION":"53.0520"}];
